[{"OBJECT_NAME":"BUFENG 1B","OBJECT_ID":"2019-032B","EPOCH":"2026-03-09T19:57:27.457920","MEAN_MOTION":15.25619535,"ECCENTRICITY":0.00242037,"INCLINATION":44.9701,"RA_OF_ASC_NODE":192.0248,"ARG_OF_PERICENTER":123.8847,"MEAN_ANOMALY":236.4342,"EPHEMERIS_TYPE":0,"CLASSIFICATION_TYPE":"U","NORAD_CAT_ID":44311,"ELEMENT_SET_NO":999,"REV_AT_EPOCH":37256,"BSTAR":0.00059375374,"MEAN_MOTION_DOT":0.00015236,"MEAN_MOTION_DDOT":0},{"OBJECT_NAME":"STARLINK-35855","OBJECT_ID":"2025-283P","EPOCH":"2026-03-09T03:49:49.630080","MEAN_MOTION":15.30184766,"ECCENTRICITY":7.796e-5,"INCLINATION":53.1612,"RA_OF_ASC_NODE":26.5806,"ARG_OF_PERICENTER":111.8454,"MEAN_ANOMALY":248.263,"EPHEMERIS_TYPE":0,"CLASSIFICATION_TYPE":"U","NORAD_CAT_ID":66891,"ELEMENT_SET_NO":999,"REV_AT_EPOCH":1576,"BSTAR":0.0010013905,"MEAN_MOTION_DOT":0.00029403,"MEAN_MOTION_DDOT":0}]
